IRIDIUM 112             
1 41925U 17003J   25125.82493362  .00000135  00000+0  41038-4 0  9992
2 41925  86.3946 258.4727 0002097  91.6461 268.4975 14.34217116434887
IRIDIUM 111             
1 41926U 17003K   25126.64947107  .00000374  00000+0  12642-3 0  9998
2 41926  86.3950 258.1896 0002180  98.6116 261.5327 14.34220189435053
IRIDIUM 113             
1 42803U 17039A   25125.44336990  .00000050  00000+0  10729-4 0  9997
2 42803  86.3949 132.6242 0002098  86.2852 273.8583 14.34217674412741
IRIDIUM 123             
1 42804U 17039B   25125.62438563  .00000103  00000+0  29834-4 0  9993
2 42804  86.3997 163.9926 0002319 102.1229 258.0226 14.34218470411533
IRIDIUM 120             
1 42805U 17039C   25126.55331982  .00010370  00000+0  36903-2 0  9994
2 42805  86.3938 131.9953 0002745  94.9453 265.2056 14.34217223412890
IRIDIUM 115             
1 42806U 17039D   25126.07721634  .00000260  00000+0  71299-4 0  9995
2 42806  86.4475 132.2673 0002428 108.8267 251.3197 14.43279767415545
IRIDIUM 118             
1 42807U 17039E   25126.35378481 -.00000102  00000+0 -43537-4 0  9996
2 42807  86.4000 163.6876 0002138  91.4125 268.7315 14.34216872411640
IRIDIUM 117             
1 42808U 17039F   25126.16350618  .00000020  00000+0  87612-8 0  9991
2 42808  86.3993 163.7288 0002163  99.9232 260.2208 14.34217846411649
